     2.10           G: GLONASS NAV DATA                     RINEX VERSION / TYPE
teqc  2015Jun23                         20220301 01:25:43UTCPGM / RUN BY / DATE
Linux 2.4.21-27.ELsmp|Opteron|gcc -static|Linux x86_64|=+   COMMENT
  2022     2     5   -0.000000000000D+00                    CORR TO SYSTEM TIME
                                                            END OF HEADER
 2 22  2  6 14 15  0.0 5.088308826089D-04 9.094947017729D-13 5.040000000000D+04
   -7.907964843750D+03-1.545688629150D+00-0.000000000000D+00 0.000000000000D+00
    1.794740527344D+04 1.625565528870D+00-9.313225746155D-10-4.000000000000D+00
   -1.630649707031D+04 2.526046752930D+00 1.862645149231D-09 0.000000000000D+00
 1 22  2  6 14 15  0.0 7.062219083309D-06-0.000000000000D+00 5.040000000000D+04
   -1.878613183594D+04 3.375740051270D-01-9.313225746155D-10 0.000000000000D+00
    1.707879687500D+04-1.288566589355D-01-9.313225746155D-10 1.000000000000D+00
    2.412259765625D+03 3.544423103333D+00 0.000000000000D+00 0.000000000000D+00
 8 22  2  6 14 15  0.0-6.343983113766D-05 0.000000000000D+00 5.040000000000D+04
   -1.820887451172D+04 1.738138198853D+00-1.862645149231D-09 0.000000000000D+00
    6.327538574219D+03-1.486857414246D+00-0.000000000000D+00 6.000000000000D+00
    1.677667773438D+04 2.452835083008D+00-9.313225746155D-10 0.000000000000D+00
12 22  2  6 14 15  0.0 1.710094511509D-05-0.000000000000D+00 5.040000000000D+04
   -6.389453125000D+03-5.919828414917D-01-0.000000000000D+00 0.000000000000D+00
    1.426334667969D+04-2.699106216431D+00-9.313225746155D-10-1.000000000000D+00
   -2.014812304688D+04-1.719028472900D+00 1.862645149231D-09 0.000000000000D+00
14 22  2  6 14 15  0.0 7.403735071421D-05 0.000000000000D+00 5.040000000000D+04
    1.065345898438D+04 4.858818054199D-01 2.793967723846D-09 0.000000000000D+00
    2.033502343750D+04 1.446119308472D+00 0.000000000000D+00-7.000000000000D+00
    1.111522216797D+04-3.113491058350D+00-0.000000000000D+00 0.000000000000D+00
24 22  2  6 14 15  0.0 7.900502532721D-05 1.818989403546D-12 5.040000000000D+04
    2.564040527344D+03-2.919541358948D+00 0.000000000000D+00 0.000000000000D+00
    1.182535742188D+04-9.591426849365D-01 0.000000000000D+00 2.000000000000D+00
    2.247831298828D+04 8.375883102417D-01-1.862645149231D-09 0.000000000000D+00
13 22  2  6 14 45  0.0-1.795962452888D-05-0.000000000000D+00 5.220000000000D+04
    2.070747558594D+03-5.550012588501D-01 9.313225746155D-10 0.000000000000D+00
    2.181309179688D+04-1.703807830811D+00-9.313225746155D-10-2.000000000000D+00
   -1.308733886719D+04-2.931623458862D+00 1.862645149231D-09 0.000000000000D+00
 2 22  2  6 14 45  0.0 5.088336765766D-04 9.094947017729D-13 5.220000000000D+04
   -1.006288916016D+04-8.514108657837D-01-9.313225746155D-10 0.000000000000D+00
    2.061191748047D+04 1.289786338806D+00-9.313225746155D-10-4.000000000000D+00
   -1.118810644531D+04 3.123986244202D+00 9.313225746155D-10 0.000000000000D+00
 1 22  2  6 14 45  0.0 7.062219083309D-06-0.000000000000D+00 5.220000000000D+04
   -1.770295654297D+04 8.281393051147D-01-1.862645149231D-09 0.000000000000D+00
    1.621175878906D+04-8.511562347412D-01-9.313225746155D-10 1.000000000000D+00
    8.616415527344D+03 3.304296493530D+00-0.000000000000D+00 0.000000000000D+00
12 22  2  6 14 45  0.0 1.710001379251D-05-0.000000000000D+00 5.220000000000D+04
   -7.905625488281D+03-1.091780662537D+00-9.313225746155D-10 0.000000000000D+00
    9.201924804688D+03-2.874311447144D+00-9.313225746155D-10-1.000000000000D+00
   -2.242259472656D+04-7.916488647461D-01 1.862645149231D-09 0.000000000000D+00
14 22  2  6 14 45  0.0 7.403828203678D-05 0.000000000000D+00 5.220000000000D+04
    1.147280371094D+04 3.830146789551D-01 2.793967723846D-09 0.000000000000D+00
    2.218765380859D+04 6.064128875732D-01-0.000000000000D+00-7.000000000000D+00
    5.153493164062D+03-3.467634201050D+00 0.000000000000D+00 0.000000000000D+00
24 22  2  6 14 45  0.0 7.900781929493D-05 1.818989403546D-12 5.229000000000D+04
   -2.909369140625D+03-3.112640380859D+00-0.000000000000D+00 0.000000000000D+00
    1.046828906250D+04-5.326375961304D-01 0.000000000000D+00 2.000000000000D+00
    2.309976074219D+04-1.515741348267D-01-1.862645149231D-09 0.000000000000D+00
 3 22  2  6 14 45  0.0 5.109049379826D-05 0.000000000000D+00 5.265000000000D+04
    3.586807128906D+03-1.865748405457D+00 0.000000000000D+00 0.000000000000D+00
    1.221865576172D+04 2.390814781189D+00-9.313225746155D-10 5.000000000000D+00
   -2.206820117188D+04 1.013075828552D+00 2.793967723846D-09 0.000000000000D+00
13 22  2  6 15 15  0.0-1.796055585146D-05-0.000000000000D+00 5.400000000000D+04
    5.778413085938D+02-1.115503311157D+00-0.000000000000D+00 0.000000000000D+00
    1.829418554688D+04-2.161684036255D+00-9.313225746155D-10-2.000000000000D+00
   -1.779114550781D+04-2.261007308960D+00 1.862645149231D-09 0.000000000000D+00
 2 22  2  6 15 15  0.0 5.088364705443D-04 9.094947017729D-13 5.400000000000D+04
   -1.101591406250D+04-2.280178070068D-01-9.313225746155D-10 0.000000000000D+00
    2.243939160156D+04 7.033691406250D-01-9.313225746155D-10-4.000000000000D+00
   -5.205703613281D+03 3.479966163635D+00 9.313225746155D-10 0.000000000000D+00
 1 22  2  6 15 15  0.0 7.062219083309D-06-0.000000000000D+00 5.400000000000D+04
   -1.595394677734D+04 1.071656227112D+00-1.862645149231D-09 0.000000000000D+00
    1.398730761719D+04-1.618609428406D+00-0.000000000000D+00 1.000000000000D+00
    1.415398437500D+04 2.808602333069D+00-9.313225746155D-10 0.000000000000D+00
 3 22  2  6 15 15  0.0 5.109142512083D-05 0.000000000000D+00 5.400000000000D+04
    7.163603515625D+02-1.310352325439D+00 0.000000000000D+00 0.000000000000D+00
    1.650572412109D+04 2.324184417725D+00-9.313225746155D-10 5.000000000000D+00
   -1.941275683594D+04 1.917998313904D+00 1.862645149231D-09 0.000000000000D+00
14 22  2  6 15 15  0.0 7.403828203678D-05 0.000000000000D+00 5.400000000000D+04
    1.188612890625D+04 3.800964355469D-02 1.862645149231D-09 0.000000000000D+00
    2.253151220703D+04-2.111692428589D-01-9.313225746155D-10-7.000000000000D+00
   -1.206908691406D+03-3.553559303284D+00 9.313225746155D-10 0.000000000000D+00
24 22  2  6 15 15  0.0 7.901061326265D-05 1.818989403546D-12 5.448000000000D+04
   -8.456704589844D+03-2.999374389648D+00-9.313225746155D-10 0.000000000000D+00
    9.933571777344D+03-6.348896026611D-02 0.000000000000D+00 2.000000000000D+00
    2.193956982422D+04-1.129224777222D+00-1.862645149231D-09 0.000000000000D+00
15 22  2  6 15 15  0.0 9.838305413723D-05-0.000000000000D+00 5.529000000000D+04
    1.562763916016D+04 1.104541778564D+00 2.793967723846D-09 0.000000000000D+00
    1.321599316406D+04 1.770410537720D+00 0.000000000000D+00 0.000000000000D+00
    1.524056591797D+04-2.669554710388D+00-9.313225746155D-10 0.000000000000D+00
13 22  2  6 15 45  0.0-1.796055585146D-05-0.000000000000D+00 5.580000000000D+04
   -1.954999511719D+03-1.692326545715D+00-9.313225746155D-10 0.000000000000D+00
    1.420064062500D+04-2.338400840759D+00-9.313225746155D-10-2.000000000000D+00
   -2.112219482422D+04-1.416223526001D+00 1.862645149231D-09 0.000000000000D+00
 2 22  2  6 15 45  0.0 5.088392645121D-04 9.094947017729D-13 5.580000000000D+04
   -1.098400195312D+04 2.293853759766D-01-1.862645149231D-09 0.000000000000D+00
    2.303311865234D+04-6.685256958008D-02-0.000000000000D+00-4.000000000000D+00
    1.178178710938D+03 3.567319869995D+00 0.000000000000D+00 0.000000000000D+00
 1 22  2  6 15 45  0.0 7.061287760735D-06-0.000000000000D+00 5.580000000000D+04
   -1.400118408203D+04 1.056380271912D+00-1.862645149231D-09 0.000000000000D+00
    1.042581591797D+04-2.317883491516D+00 0.000000000000D+00 1.000000000000D+00
    1.859678808594D+04 2.095813751221D+00-1.862645149231D-09 0.000000000000D+00
 3 22  2  6 15 45  0.0 5.109235644341D-05 0.000000000000D+00 5.580000000000D+04
   -1.116197265625D+03-7.311630249023D-01-0.000000000000D+00 0.000000000000D+00
    2.041079443359D+04 1.967582702637D+00-9.313225746155D-10 5.000000000000D+00
   -1.525350976562D+04 2.673152923584D+00 1.862645149231D-09 0.000000000000D+00
14 22  2  6 15 45  0.0 7.403921335936D-05 0.000000000000D+00 5.580000000000D+04
    1.148824462891D+04-5.080366134644D-01 9.313225746155D-10 0.000000000000D+00
    2.150612255859D+04-8.984289169312D-01-9.313225746155D-10-7.000000000000D+00
   -7.473908203125D+03-3.364517211914D+00 9.313225746155D-10 0.000000000000D+00
15 22  2  6 15 45  0.0 9.838305413723D-05-0.000000000000D+00 5.580000000000D+04
    1.748268798828D+04 9.127740859985D-01 2.793967723846D-09 0.000000000000D+00
    1.572318554688D+04 1.009660720825D+00-0.000000000000D+00 0.000000000000D+00
    9.908802246094D+03-3.216228485107D+00-0.000000000000D+00 0.000000000000D+00
24 22  2  6 15 45  0.0 7.901433855295D-05 1.818989403546D-12 5.586000000000D+04
   -1.352818164062D+04-2.589405059814D+00-1.862645149231D-09 0.000000000000D+00
    1.020023242188D+04 3.402528762817D-01 0.000000000000D+00 2.000000000000D+00
    1.908673437500D+04-2.020123481750D+00-1.862645149231D-09 0.000000000000D+00
13 22  2  6 16 15  0.0-1.796148717403D-05-0.000000000000D+00 5.760000000000D+04
   -5.458637695312D+03-2.176376342773D+00-9.313225746155D-10 0.000000000000D+00
    1.004575244141D+04-2.233604431152D+00-0.000000000000D+00-2.000000000000D+00
   -2.282394482422D+04-4.623785018921D-01 1.862645149231D-09 0.000000000000D+00
 2 22  2  6 16 15  0.0 5.088420584798D-04 1.818989403546D-12 5.760000000000D+04
   -1.032839257812D+04 4.577751159668D-01-1.862645149231D-09 0.000000000000D+00
    2.214719335938D+04-9.224119186401D-01-0.000000000000D+00-4.000000000000D+00
    7.471441894531D+03 3.380036354065D+00-0.000000000000D+00 0.000000000000D+00
 3 22  2  6 16 15  0.0 5.109328776598D-05 0.000000000000D+00 5.760000000000D+04
   -1.966716796875D+03-2.361536026001D-01-9.313225746155D-10 0.000000000000D+00
    2.343229785156D+04 1.351188659668D+00-9.313225746155D-10 5.000000000000D+00
   -9.914386230469D+03 3.220560073853D+00 9.313225746155D-10 0.000000000000D+00
